HAWK-2C                 
1 47502U 21006CT  26068.67595434  .00008129  00000+0  25493-3 0  9997
2 47502  97.2417 114.9961 0006943 184.0877 176.0310 15.33286436284247
STARLINK-34869          
1 65371U 25190W   26068.54672500  .00035253  00000+0  11967-2 0  9993
2 65371  53.1595 168.8163 0002117  22.8500 337.2595 15.30200898 29734
